{"type":"FeatureCollection","features":[{"type":"Feature","geometry":{"type":"Point","coordinates":[-95.5705115,29.8683593]},"properties":{"NUMBER":"6725","STREET":"BRITTMOORE RD","UNIT":"","CITY":"","DISTRICT":"","REGION":"","POSTCODE":"77041","ID":"","HASH":"dceafdb1238b9912"}},{"type":"Feature","geometry":{"type":"Point","coordinates":[-95.458371,29.7745921]},"properties":{"NUMBER":"361","STREET":"N  POST OAK LN","UNIT":"","CITY":"","DISTRICT":"","REGION":"","POSTCODE":"77024","ID":"","HASH":"1fd01ec9beaced29"}},{"type":"Feature","geometry":{"type":"Point","coordinates":[-95.5093096,29.7821227]},"properties":{"NUMBER":"8941","STREET":"GAYLORD ST","UNIT":"","CITY":"","DISTRICT":"","REGION":"","POSTCODE":"77024","ID":"","HASH":"7e17e257c1401b59"}},{"type":"Feature","geometry":{"type":"Point","coordinates":[-95.5078112,29.7815143]},"properties":{"NUMBER":"25","STREET":"HEDWIG CIR","UNIT":"","CITY":"","DISTRICT":"","REGION":"","POSTCODE":"77024","ID":"","HASH":"7cc955df56074b7a"}},{"type":"Feature","geometry":{"type":"Point","coordinates":[-95.5696346,29.8695326]},"properties":{"NUMBER":"6923","STREET":"BRITTMOORE","UNIT":"","CITY":"","DISTRICT":"","REGION":"","POSTCODE":"77041","ID":"","HASH":"871c4159813eb626"}},{"type":"Feature","geometry":{"type":"Point","coordinates":[-95.458371,29.7745921]},"properties":{"NUMBER":"355","STREET":"N  POST OAK LN","UNIT":"","CITY":"","DISTRICT":"","REGION":"","POSTCODE":"77024","ID":"","HASH":"f55a0bdeb88f6767"}},{"type":"Feature","geometry":{"type":"Point","coordinates":[-95.5093096,29.7821227]},"properties":{"NUMBER":"8941","STREET":"GAYLORD ST","UNIT":"","CITY":"","DISTRICT":"","REGION":"","POSTCODE":"77024","ID":"","HASH":"7e17e257c1401b59"}},{"type":"Feature","geometry":{"type":"Point","coordinates":[-95.5090885,29.7805161]},"properties":{"NUMBER":"822","STREET":"HEDWIG WAY","UNIT":"","CITY":"","DISTRICT":"","REGION":"","POSTCODE":"77024","ID":"","HASH":"3cd53f256d01ee24"}},{"type":"Feature","geometry":{"type":"Point","coordinates":[-95.5093096,29.7821227]},"properties":{"NUMBER":"8931","STREET":"GAYLORD ST","UNIT":"","CITY":"","DISTRICT":"","REGION":"","POSTCODE":"77024","ID":"","HASH":"baa509cbb07142d3"}},{"type":"Feature","geometry":{"type":"Point","coordinates":[-95.5093096,29.7821227]},"properties":{"NUMBER":"8931","STREET":"GAYLORD ST","UNIT":"","CITY":"","DISTRICT":"","REGION":"","POSTCODE":"77024","ID":"","HASH":"baa509cbb07142d3"}},{"type":"Feature","geometry":{"type":"Point","coordinates":[-95.5093096,29.7821227]},"properties":{"NUMBER":"8935","STREET":"GAYLORD ST","UNIT":"","CITY":"","DISTRICT":"","REGION":"","POSTCODE":"77024","ID":"","HASH":"f6600dc251747b90"}},{"type":"Feature","geometry":{"type":"Point","coordinates":[-95.5093096,29.7821227]},"properties":{"NUMBER":"8935","STREET":"GAYLORD ST","UNIT":"","CITY":"","DISTRICT":"","REGION":"","POSTCODE":"77024","ID":"","HASH":"f6600dc251747b90"}},{"type":"Feature","geometry":{"type":"Point","coordinates":[-95.5831281,29.7447073]},"properties":{"NUMBER":"2106","STREET":"GLEN KNOLL DR","UNIT":"","CITY":"","DISTRICT":"","REGION":"","POSTCODE":"77077","ID":"","HASH":"2decba6761e8448f"}},{"type":"Feature","geometry":{"type":"Point","coordinates":[-95.5093096,29.7821227]},"properties":{"NUMBER":"8949","STREET":"GAYLORD ST","UNIT":"","CITY":"","DISTRICT":"","REGION":"","POSTCODE":"77024","ID":"","HASH":"890e80dbb5f98a73"}},{"type":"Feature","geometry":{"type":"Point","coordinates":[-95.5093096,29.7821227]},"properties":{"NUMBER":"8941","STREET":"GAYLORD ST","UNIT":"","CITY":"","DISTRICT":"","REGION":"","POSTCODE":"77024","ID":"","HASH":"7e17e257c1401b59"}},{"type":"Feature","geometry":{"type":"Point","coordinates":[-95.5093096,29.7821227]},"properties":{"NUMBER":"8949","STREET":"GAYLORD ST","UNIT":"","CITY":"","DISTRICT":"","REGION":"","POSTCODE":"77024","ID":"","HASH":"890e80dbb5f98a73"}},{"type":"Feature","geometry":{"type":"Point","coordinates":[-95.5093096,29.7821227]},"properties":{"NUMBER":"8941","STREET":"GAYLORD ST","UNIT":"","CITY":"","DISTRICT":"","REGION":"","POSTCODE":"77024","ID":"","HASH":"7e17e257c1401b59"}},{"type":"Feature","geometry":{"type":"Point","coordinates":[-95.5082207,29.7813006]},"properties":{"NUMBER":"838","STREET":"HEDWIG WAY","UNIT":"","CITY":"","DISTRICT":"","REGION":"","POSTCODE":"77024","ID":"","HASH":"2c651a224690fcb0"}},{"type":"Feature","geometry":{"type":"Point","coordinates":[-95.5093096,29.7821227]},"properties":{"NUMBER":"8941","STREET":"GAYLORD ST","UNIT":"","CITY":"","DISTRICT":"","REGION":"","POSTCODE":"77024","ID":"","HASH":"7e17e257c1401b59"}},{"type":"Feature","geometry":{"type":"Point","coordinates":[-95.5093096,29.7821227]},"properties":{"NUMBER":"8945","STREET":"GAYLORD ST","UNIT":"","CITY":"","DISTRICT":"","REGION":"","POSTCODE":"77024","ID":"","HASH":"5612d114949140c6"}},{"type":"Feature","geometry":{"type":"Point","coordinates":[-95.5093096,29.7821227]},"properties":{"NUMBER":"8931","STREET":"GAYLORD ST","UNIT":"","CITY":"","DISTRICT":"","REGION":"","POSTCODE":"77024","ID":"","HASH":"baa509cbb07142d3"}},{"type":"Feature","geometry":{"type":"Point","coordinates":[-95.5093096,29.7821227]},"properties":{"NUMBER":"8931","STREET":"GAYLORD ST","UNIT":"","CITY":"","DISTRICT":"","REGION":"","POSTCODE":"77024","ID":"","HASH":"baa509cbb07142d3"}},{"type":"Feature","geometry":{"type":"Point","coordinates":[-95.5093096,29.7821227]},"properties":{"NUMBER":"8931","STREET":"GAYLORD ST","UNIT":"","CITY":"","DISTRICT":"","REGION":"","POSTCODE":"77024","ID":"","HASH":"baa509cbb07142d3"}},{"type":"Feature","geometry":{"type":"Point","coordinates":[-95.5093096,29.7821227]},"properties":{"NUMBER":"8935","STREET":"GAYLORD ST","UNIT":"","CITY":"","DISTRICT":"","REGION":"","POSTCODE":"77024","ID":"","HASH":"f6600dc251747b90"}},{"type":"Feature","geometry":{"type":"Point","coordinates":[-95.5093096,29.7821227]},"properties":{"NUMBER":"8931","STREET":"GAYLORD ST","UNIT":"","CITY":"","DISTRICT":"","REGION":"","POSTCODE":"77024","ID":"","HASH":"baa509cbb07142d3"}},{"type":"Feature","geometry":{"type":"Point","coordinates":[-95.5093096,29.7821227]},"properties":{"NUMBER":"8937","STREET":"GAYLORD ST","UNIT":"","CITY":"","DISTRICT":"","REGION":"","POSTCODE":"77024","ID":"","HASH":"1c355192871cce52"}},{"type":"Feature","geometry":{"type":"Point","coordinates":[-95.5093096,29.7821227]},"properties":{"NUMBER":"8937","STREET":"GAYLORD ST","UNIT":"","CITY":"","DISTRICT":"","REGION":"","POSTCODE":"77024","ID":"","HASH":"1c355192871cce52"}},{"type":"Feature","geometry":{"type":"Point","coordinates":[-95.5093096,29.7821227]},"properties":{"NUMBER":"8933","STREET":"GAYLORD ST","UNIT":"","CITY":"","DISTRICT":"","REGION":"","POSTCODE":"77024","ID":"","HASH":"be1036b45402be5b"}},{"type":"Feature","geometry":{"type":"Point","coordinates":[-95.5093096,29.7821227]},"properties":{"NUMBER":"8933","STREET":"GAYLORD ST","UNIT":"","CITY":"","DISTRICT":"","REGION":"","POSTCODE":"77024","ID":"","HASH":"be1036b45402be5b"}},{"type":"Feature","geometry":{"type":"Point","coordinates":[-95.5392049,29.818259]},"properties":{"NUMBER":"2534","STREET":"BANDELIER DR","UNIT":"","CITY":"","DISTRICT":"","REGION":"","POSTCODE":"77080","ID":"","HASH":"cb1147209fb72c14"}},{"type":"Feature","geometry":{"type":"Point","coordinates":[-95.5384223,29.8169402]},"properties":{"NUMBER":"2510","STREET":"MOSS HILL DR","UNIT":"","CITY":"","DISTRICT":"","REGION":"","POSTCODE":"77080","ID":"","HASH":"c3f14fdae620e493"}},{"type":"Feature","geometry":{"type":"Point","coordinates":[-95.5024302,29.8171655]},"properties":{"NUMBER":"8530","STREET":"KEMPRIDGE ST","UNIT":"","CITY":"","DISTRICT":"","REGION":"","POSTCODE":"77080","ID":"","HASH":"717eda3751693621"}},{"type":"Feature","geometry":{"type":"Point","coordinates":[-95.5278717,29.8154656]},"properties":{"NUMBER":"9510","STREET":"EMNORA LN","UNIT":"","CITY":"","DISTRICT":"","REGION":"","POSTCODE":"77080","ID":"","HASH":"3a942ff64e91cc79"}},{"type":"Feature","geometry":{"type":"Point","coordinates":[-95.5757395,29.8004464]},"properties":{"NUMBER":"0","STREET":"AVENU MALKENU AVE","UNIT":"","CITY":"","DISTRICT":"","REGION":"","POSTCODE":"77043","ID":"","HASH":"aad26f5c0406a0ad"}},{"type":"Feature","geometry":{"type":"Point","coordinates":[-95.5758055,29.8004462]},"properties":{"NUMBER":"0","STREET":"AVENU MALKENU AVE","UNIT":"","CITY":"","DISTRICT":"","REGION":"","POSTCODE":"77043","ID":"","HASH":"7344d3c6a3c8246c"}},{"type":"Feature","geometry":{"type":"Point","coordinates":[-95.5759902,29.7999143]},"properties":{"NUMBER":"0","STREET":"PRIVATE STREETS","UNIT":"","CITY":"","DISTRICT":"","REGION":"","POSTCODE":"77043","ID":"","HASH":"66914ee2e9a3a182"}},{"type":"Feature","geometry":{"type":"Point","coordinates":[-95.5007333,29.7760548]},"properties":{"NUMBER":"10776","STREET":"BRIDLEWOOD ST","UNIT":"","CITY":"","DISTRICT":"","REGION":"","POSTCODE":"77024","ID":"","HASH":"aef3020df0818250"}},{"type":"Feature","geometry":{"type":"Point","coordinates":[-95.5315681,29.8152405]},"properties":{"NUMBER":"2438","STREET":"EAGLEROCK DR","UNIT":"","CITY":"","DISTRICT":"","REGION":"","POSTCODE":"77080","ID":"","HASH":"94630852b409fdba"}},{"type":"Feature","geometry":{"type":"Point","coordinates":[-95.5093096,29.7821227]},"properties":{"NUMBER":"8941","STREET":"GAYLORD ST","UNIT":"","CITY":"","DISTRICT":"","REGION":"","POSTCODE":"77024","ID":"","HASH":"7e17e257c1401b59"}},{"type":"Feature","geometry":{"type":"Point","coordinates":[-95.5761515,29.8006879]},"properties":{"NUMBER":"1818","STREET":"UPLAND DR","UNIT":"","CITY":"","DISTRICT":"","REGION":"","POSTCODE":"77043","ID":"","HASH":"1c19834f0b10e7e4"}},{"type":"Feature","geometry":{"type":"Point","coordinates":[-95.5093096,29.7821227]},"properties":{"NUMBER":"8935","STREET":"GAYLORD ST","UNIT":"","CITY":"","DISTRICT":"","REGION":"","POSTCODE":"77024","ID":"","HASH":"f6600dc251747b90"}},{"type":"Feature","geometry":{"type":"Point","coordinates":[-95.501347,29.7766438]},"properties":{"NUMBER":"718","STREET":"VOSS RD","UNIT":"","CITY":"","DISTRICT":"","REGION":"","POSTCODE":"77024","ID":"","HASH":"e16641db1d4d8376"}},{"type":"Feature","geometry":{"type":"Point","coordinates":[-95.5759727,29.8004456]},"properties":{"NUMBER":"11018","STREET":"AVENU MALKENU AVE","UNIT":"","CITY":"","DISTRICT":"","REGION":"","POSTCODE":"77043","ID":"","HASH":"77979fc05447b8cd"}},{"type":"Feature","geometry":{"type":"Point","coordinates":[-95.5093096,29.7821227]},"properties":{"NUMBER":"8941","STREET":"GAYLORD ST","UNIT":"","CITY":"","DISTRICT":"","REGION":"","POSTCODE":"77024","ID":"","HASH":"7e17e257c1401b59"}},{"type":"Feature","geometry":{"type":"Point","coordinates":[-95.5093096,29.7821227]},"properties":{"NUMBER":"8935","STREET":"GAYLORD ST","UNIT":"","CITY":"","DISTRICT":"","REGION":"","POSTCODE":"77024","ID":"","HASH":"f6600dc251747b90"}},{"type":"Feature","geometry":{"type":"Point","coordinates":[-95.5366906,29.815617]},"properties":{"NUMBER":"9842","STREET":"EMNORA LN","UNIT":"","CITY":"","DISTRICT":"","REGION":"","POSTCODE":"77080","ID":"","HASH":"4386183c84157fd6"}},{"type":"Feature","geometry":{"type":"Point","coordinates":[-95.5939845,29.8926427]},"properties":{"NUMBER":"7918","STREET":"FAIRVIEW ST","UNIT":"","CITY":"","DISTRICT":"","REGION":"","POSTCODE":"77041","ID":"","HASH":"b220e1498404f435"}},{"type":"Feature","geometry":{"type":"Point","coordinates":[-95.5093096,29.7821227]},"properties":{"NUMBER":"8941","STREET":"GAYLORD ST","UNIT":"","CITY":"","DISTRICT":"","REGION":"","POSTCODE":"77024","ID":"","HASH":"7e17e257c1401b59"}},{"type":"Feature","geometry":{"type":"Point","coordinates":[-95.5093096,29.7821227]},"properties":{"NUMBER":"8941","STREET":"GAYLORD ST","UNIT":"","CITY":"","DISTRICT":"","REGION":"","POSTCODE":"77024","ID":"","HASH":"7e17e257c1401b59"}},{"type":"Feature","geometry":{"type":"Point","coordinates":[-95.5760757,29.8004448]},"properties":{"NUMBER":"11020","STREET":"AVENU MALKENU AVE","UNIT":"","CITY":"","DISTRICT":"","REGION":"","POSTCODE":"77043","ID":"","HASH":"e3bd2fa0ca2fa65c"}},{"type":"Feature","geometry":{"type":"Point","coordinates":[-95.5273694,29.8152079]},"properties":{"NUMBER":"2335","STREET":"STILLWOOD DR","UNIT":"","CITY":"","DISTRICT":"","REGION":"","POSTCODE":"77080","ID":"","HASH":"db3ff752d2e327c1"}},{"type":"Feature","geometry":{"type":"Point","coordinates":[-95.5294078,29.814408]},"properties":{"NUMBER":"9607","STREET":"WEATHERWOOD DR","UNIT":"","CITY":"","DISTRICT":"","REGION":"","POSTCODE":"77080","ID":"","HASH":"1a86bccbf5e1042b"}},{"type":"Feature","geometry":{"type":"Point","coordinates":[-95.5758715,29.800446]},"properties":{"NUMBER":"0","STREET":"AVENU MALKENU AVE","UNIT":"","CITY":"","DISTRICT":"","REGION":"","POSTCODE":"77043","ID":"","HASH":"3ed7be84957a3fc2"}},{"type":"Feature","geometry":{"type":"Point","coordinates":[-95.4999299,29.7752091]},"properties":{"NUMBER":"10701","STREET":"BRIDLEWOOD ST","UNIT":"","CITY":"","DISTRICT":"","REGION":"","POSTCODE":"77024","ID":"","HASH":"a3db830f3b4cb381"}},{"type":"Feature","geometry":{"type":"Point","coordinates":[-95.5093096,29.7821227]},"properties":{"NUMBER":"8935","STREET":"GAYLORD ST","UNIT":"","CITY":"","DISTRICT":"","REGION":"","POSTCODE":"77024","ID":"","HASH":"f6600dc251747b90"}},{"type":"Feature","geometry":{"type":"Point","coordinates":[-95.5093096,29.7821227]},"properties":{"NUMBER":"8935","STREET":"GAYLORD ST","UNIT":"","CITY":"","DISTRICT":"","REGION":"","POSTCODE":"77024","ID":"","HASH":"f6600dc251747b90"}},{"type":"Feature","geometry":{"type":"Point","coordinates":[-95.575198,29.8816451]},"properties":{"NUMBER":"0","STREET":"R R PROPERTY","UNIT":"","CITY":"","DISTRICT":"","REGION":"","POSTCODE":"77041","ID":"","HASH":"fbc3e0a8e2d29e31"}},{"type":"Feature","geometry":{"type":"Point","coordinates":[-95.575198,29.8816451]},"properties":{"NUMBER":"0","STREET":"R R PROPERTY","UNIT":"","CITY":"","DISTRICT":"","REGION":"","POSTCODE":"77041","ID":"","HASH":"fbc3e0a8e2d29e31"}},{"type":"Feature","geometry":{"type":"Point","coordinates":[-95.5093096,29.7821227]},"properties":{"NUMBER":"8935","STREET":"GAYLORD ST","UNIT":"","CITY":"","DISTRICT":"","REGION":"","POSTCODE":"77024","ID":"","HASH":"f6600dc251747b90"}},{"type":"Feature","geometry":{"type":"Point","coordinates":[-95.5739432,29.8812746]},"properties":{"NUMBER":"0","STREET":"SPENCER RD","UNIT":"","CITY":"","DISTRICT":"","REGION":"","POSTCODE":"77041","ID":"","HASH":"fc82c46662b600e7"}},{"type":"Feature","geometry":{"type":"Point","coordinates":[-95.5093096,29.7821227]},"properties":{"NUMBER":"8935","STREET":"GAYLORD ST","UNIT":"","CITY":"","DISTRICT":"","REGION":"","POSTCODE":"77024","ID":"","HASH":"f6600dc251747b90"}},{"type":"Feature","geometry":{"type":"Point","coordinates":[-95.458371,29.7745921]},"properties":{"NUMBER":"361","STREET":"N  POST OAK LN","UNIT":"","CITY":"","DISTRICT":"","REGION":"","POSTCODE":"77024","ID":"","HASH":"1fd01ec9beaced29"}},{"type":"Feature","geometry":{"type":"Point","coordinates":[-95.458371,29.7745921]},"properties":{"NUMBER":"351","STREET":"N  POST OAK LN","UNIT":"","CITY":"","DISTRICT":"","REGION":"","POSTCODE":"77024","ID":"","HASH":"4e29dd1bb9c793aa"}},{"type":"Feature","geometry":{"type":"Point","coordinates":[-95.5481633,29.7763556]},"properties":{"NUMBER":"12422","STREET":"KIMBERLEY LN","UNIT":"","CITY":"","DISTRICT":"","REGION":"","POSTCODE":"77024","ID":"","HASH":"03b3d648149088f3"}},{"type":"Feature","geometry":{"type":"Point","coordinates":[-95.4583224,29.7782981]},"properties":{"NUMBER":"584","STREET":"TRIANON ST","UNIT":"","CITY":"","DISTRICT":"","REGION":"","POSTCODE":"77024","ID":"","HASH":"59c179b1c68d8a00"}},{"type":"Feature","geometry":{"type":"Point","coordinates":[-95.5452227,29.7610814]},"properties":{"NUMBER":"235","STREET":"GESSNER RD","UNIT":"","CITY":"","DISTRICT":"","REGION":"","POSTCODE":"77024","ID":"","HASH":"74ce0d15f2f40280"}},{"type":"Feature","geometry":{"type":"Point","coordinates":[-95.458371,29.7745921]},"properties":{"NUMBER":"361","STREET":"N  POST OAK LN","UNIT":"","CITY":"","DISTRICT":"","REGION":"","POSTCODE":"77024","ID":"","HASH":"1fd01ec9beaced29"}},{"type":"Feature","geometry":{"type":"Point","coordinates":[-95.5225906,29.7662546]},"properties":{"NUMBER":"11603","STREET":"WINDY LN","UNIT":"","CITY":"","DISTRICT":"","REGION":"","POSTCODE":"77024","ID":"","HASH":"969a79fe5c7c92a2"}},{"type":"Feature","geometry":{"type":"Point","coordinates":[-95.527328,29.7616523]},"properties":{"NUMBER":"11702","STREET":"COUNTRY WAY","UNIT":"","CITY":"","DISTRICT":"","REGION":"","POSTCODE":"77024","ID":"","HASH":"15cd34e1a6becf50"}},{"type":"Feature","geometry":{"type":"Point","coordinates":[-95.531438,29.8369886]},"properties":{"NUMBER":"9709","STREET":"CASA LOMA DR","UNIT":"","CITY":"","DISTRICT":"","REGION":"","POSTCODE":"77041","ID":"","HASH":"9a2ee02d8dc358e8"}},{"type":"Feature","geometry":{"type":"Point","coordinates":[-95.5145486,29.8282489]},"properties":{"NUMBER":"9015","STREET":"RAILTON ST","UNIT":"","CITY":"","DISTRICT":"","REGION":"","POSTCODE":"77080","ID":"","HASH":"9a16bf7503848d25"}},{"type":"Feature","geometry":{"type":"Point","coordinates":[-95.5600749,29.8148444]},"properties":{"NUMBER":"10623","STREET":"EMNORA LN","UNIT":"","CITY":"","DISTRICT":"","REGION":"","POSTCODE":"77043","ID":"","HASH":"445c0c133c53c4be"}},{"type":"Feature","geometry":{"type":"Point","coordinates":[-95.5596965,29.8148474]},"properties":{"NUMBER":"10615","STREET":"EMNORA LN","UNIT":"","CITY":"","DISTRICT":"","REGION":"","POSTCODE":"77043","ID":"","HASH":"25214c1544612120"}},{"type":"Feature","geometry":{"type":"Point","coordinates":[-95.5281734,29.7713666]},"properties":{"NUMBER":"11703","STREET":"BROKEN BOUGH CIR","UNIT":"","CITY":"","DISTRICT":"","REGION":"","POSTCODE":"77024","ID":"","HASH":"db99d835e1ef4e25"}},{"type":"Feature","geometry":{"type":"Point","coordinates":[-95.5506465,29.8441836]},"properties":{"NUMBER":"10414","STREET":"N  FALLEN BOUGH DR","UNIT":"","CITY":"","DISTRICT":"","REGION":"","POSTCODE":"77041","ID":"","HASH":"623bd4796ea43863"}},{"type":"Feature","geometry":{"type":"Point","coordinates":[-95.500036,29.771583]},"properties":{"NUMBER":"609","STREET":"SADDLEWOOD LN","UNIT":"","CITY":"","DISTRICT":"","REGION":"","POSTCODE":"77024","ID":"","HASH":"8aef5295d4618d72"}},{"type":"Feature","geometry":{"type":"Point","coordinates":[-95.458371,29.7745921]},"properties":{"NUMBER":"357","STREET":"N  POST OAK LN","UNIT":"","CITY":"","DISTRICT":"","REGION":"","POSTCODE":"77024","ID":"","HASH":"4c71dbfecb8bac10"}},{"type":"Feature","geometry":{"type":"Point","coordinates":[-95.5311152,29.8148072]},"properties":{"NUMBER":"2403","STREET":"CRESTDALE DR","UNIT":"","CITY":"","DISTRICT":"","REGION":"","POSTCODE":"77080","ID":"","HASH":"0f4ed91c8ce5b73a"}},{"type":"Feature","geometry":{"type":"Point","coordinates":[-95.458371,29.7745921]},"properties":{"NUMBER":"355","STREET":"N  POST OAK LN","UNIT":"","CITY":"","DISTRICT":"","REGION":"","POSTCODE":"77024","ID":"","HASH":"f55a0bdeb88f6767"}},{"type":"Feature","geometry":{"type":"Point","coordinates":[-95.458371,29.7745921]},"properties":{"NUMBER":"361","STREET":"N  POST OAK LN","UNIT":"","CITY":"","DISTRICT":"","REGION":"","POSTCODE":"77024","ID":"","HASH":"1fd01ec9beaced29"}},{"type":"Feature","geometry":{"type":"Point","coordinates":[-95.5621561,29.8148276]},"properties":{"NUMBER":"10667","STREET":"EMNORA LN","UNIT":"","CITY":"","DISTRICT":"","REGION":"","POSTCODE":"77043","ID":"","HASH":"0312c50c31fd4dbf"}},{"type":"Feature","geometry":{"type":"Point","coordinates":[-95.5619669,29.8148291]},"properties":{"NUMBER":"10663","STREET":"EMNORA LN","UNIT":"","CITY":"","DISTRICT":"","REGION":"","POSTCODE":"77043","ID":"","HASH":"b46e4d712150c21e"}},{"type":"Feature","geometry":{"type":"Point","coordinates":[-95.5339572,29.8172392]},"properties":{"NUMBER":"2518","STREET":"PALO PINTO DR","UNIT":"","CITY":"","DISTRICT":"","REGION":"","POSTCODE":"77080","ID":"","HASH":"5f5dbb7e62c98f41"}},{"type":"Feature","geometry":{"type":"Point","coordinates":[-95.5366337,29.8197464]},"properties":{"NUMBER":"2622","STREET":"ROSEFIELD DR","UNIT":"","CITY":"","DISTRICT":"","REGION":"","POSTCODE":"77080","ID":"","HASH":"8e5541fd6e323413"}},{"type":"Feature","geometry":{"type":"Point","coordinates":[-95.5117985,29.8186604]},"properties":{"NUMBER":"8825","STREET":"FRIENDSHIP RD","UNIT":"","CITY":"","DISTRICT":"","REGION":"","POSTCODE":"77080","ID":"","HASH":"b41e5b4add2502b5"}},{"type":"Feature","geometry":{"type":"Point","coordinates":[-95.6118545,29.7801412]},"properties":{"NUMBER":"830","STREET":"THREADNEEDLE ST","UNIT":"","CITY":"","DISTRICT":"","REGION":"","POSTCODE":"77079","ID":"","HASH":"ca88aaebc48b7ffc"}},{"type":"Feature","geometry":{"type":"Point","coordinates":[-95.458371,29.7745921]},"properties":{"NUMBER":"351","STREET":"N  POST OAK LN","UNIT":"","CITY":"","DISTRICT":"","REGION":"","POSTCODE":"77024","ID":"","HASH":"4e29dd1bb9c793aa"}},{"type":"Feature","geometry":{"type":"Point","coordinates":[-95.5359213,29.8143503]},"properties":{"NUMBER":"9831","STREET":"VOGUE LN","UNIT":"","CITY":"","DISTRICT":"","REGION":"","POSTCODE":"77080","ID":"","HASH":"4469e505a05b5dd3"}},{"type":"Feature","geometry":{"type":"Point","coordinates":[-95.5190177,29.8192074]},"properties":{"NUMBER":"9234","STREET":"NORTON DR","UNIT":"","CITY":"","DISTRICT":"","REGION":"","POSTCODE":"77080","ID":"","HASH":"f5f87636479fc455"}},{"type":"Feature","geometry":{"type":"Point","coordinates":[-95.519553,29.8202178]},"properties":{"NUMBER":"9242","STREET":"FRIENDSHIP RD","UNIT":"","CITY":"","DISTRICT":"","REGION":"","POSTCODE":"77080","ID":"","HASH":"b15994e2b01ac913"}},{"type":"Feature","geometry":{"type":"Point","coordinates":[-95.5135078,29.7754194]},"properties":{"NUMBER":"11226","STREET":"WILDING LN","UNIT":"","CITY":"","DISTRICT":"","REGION":"","POSTCODE":"77024","ID":"","HASH":"1fc096bd2e5e9479"}},{"type":"Feature","geometry":{"type":"Point","coordinates":[-95.5371448,29.8156138]},"properties":{"NUMBER":"9902","STREET":"EMNORA LN","UNIT":"","CITY":"","DISTRICT":"","REGION":"","POSTCODE":"77080","ID":"","HASH":"31e81837c6e7ad69"}},{"type":"Feature","geometry":{"type":"Point","coordinates":[-95.5254729,29.815555]},"properties":{"NUMBER":"9445","STREET":"EMNORA LN","UNIT":"","CITY":"","DISTRICT":"","REGION":"","POSTCODE":"77080","ID":"","HASH":"d25a3c7f7bbdf811"}},{"type":"Feature","geometry":{"type":"Point","coordinates":[-95.5893603,29.7785455]},"properties":{"NUMBER":"13926","STREET":"QUEENSBURY LN","UNIT":"","CITY":"","DISTRICT":"","REGION":"","POSTCODE":"77079","ID":"","HASH":"cbf8362bdfb4f4b7"}},{"type":"Feature","geometry":{"type":"Point","coordinates":[-95.520823,29.8192044]},"properties":{"NUMBER":"9267","STREET":"NORTON DR","UNIT":"","CITY":"","DISTRICT":"","REGION":"","POSTCODE":"77080","ID":"","HASH":"74ce0915cc0c63aa"}},{"type":"Feature","geometry":{"type":"Point","coordinates":[-95.5129493,29.8175977]},"properties":{"NUMBER":"2510","STREET":"LAVERNE ST","UNIT":"","CITY":"","DISTRICT":"","REGION":"","POSTCODE":"77080","ID":"","HASH":"34bbac635d7862d7"}},{"type":"Feature","geometry":{"type":"Point","coordinates":[-95.4601335,29.7759205]},"properties":{"NUMBER":"503","STREET":"PINEHAVEN DR","UNIT":"","CITY":"","DISTRICT":"","REGION":"","POSTCODE":"77024","ID":"","HASH":"3079dd371de32627"}},{"type":"Feature","geometry":{"type":"Point","coordinates":[-95.458371,29.7745921]},"properties":{"NUMBER":"359","STREET":"N  POST OAK LN","UNIT":"","CITY":"","DISTRICT":"","REGION":"","POSTCODE":"77024","ID":"","HASH":"8334c7561b810d17"}},{"type":"Feature","geometry":{"type":"Point","coordinates":[-95.5193394,29.8201492]},"properties":{"NUMBER":"9238","STREET":"FRIENDSHIP RD","UNIT":"","CITY":"","DISTRICT":"","REGION":"","POSTCODE":"77080","ID":"","HASH":"a96b03aa2becf050"}},{"type":"Feature","geometry":{"type":"Point","coordinates":[-95.458371,29.7745921]},"properties":{"NUMBER":"361","STREET":"N  POST OAK LN","UNIT":"","CITY":"","DISTRICT":"","REGION":"","POSTCODE":"77024","ID":"","HASH":"1fd01ec9beaced29"}},{"type":"Feature","geometry":{"type":"Point","coordinates":[-95.458371,29.7745921]},"properties":{"NUMBER":"361","STREET":"N  POST OAK LN","UNIT":"","CITY":"","DISTRICT":"","REGION":"","POSTCODE":"77024","ID":"","HASH":"1fd01ec9beaced29"}},{"type":"Feature","geometry":{"type":"Point","coordinates":[-95.5553489,29.7658149]},"properties":{"NUMBER":"12625","STREET":"MEMORIAL DR","UNIT":"","CITY":"","DISTRICT":"","REGION":"","POSTCODE":"77024","ID":"","HASH":"0e311413858faeb6"}},{"type":"Feature","geometry":{"type":"Point","coordinates":[-95.458371,29.7745921]},"properties":{"NUMBER":"357","STREET":"N  POST OAK LN","UNIT":"","CITY":"","DISTRICT":"","REGION":"","POSTCODE":"77024","ID":"","HASH":"4c71dbfecb8bac10"}},{"type":"Feature","geometry":{"type":"Point","coordinates":[-95.5449814,29.7564498]},"properties":{"NUMBER":"25","STREET":"BAYOU SHADOWS ST","UNIT":"","CITY":"","DISTRICT":"","REGION":"","POSTCODE":"77024","ID":"","HASH":"99a54c342f92cd7c"}},{"type":"Feature","geometry":{"type":"Point","coordinates":[-95.5215592,29.7749267]},"properties":{"NUMBER":"3","STREET":"BLALOCK PINES CT","UNIT":"","CITY":"","DISTRICT":"","REGION":"","POSTCODE":"77024","ID":"","HASH":"e00b86f7abbef9fa"}},{"type":"Feature","geometry":{"type":"Point","coordinates":[-95.5470705,29.7780138]},"properties":{"NUMBER":"12343","STREET":"BARRYKNOLL LN","UNIT":"","CITY":"","DISTRICT":"","REGION":"","POSTCODE":"77024","ID":"","HASH":"86b41cb554cace7d"}},{"type":"Feature","geometry":{"type":"Point","coordinates":[-95.5462024,29.8202031]},"properties":{"NUMBER":"2681","STREET":"GESSNER DR","UNIT":"","CITY":"","DISTRICT":"","REGION":"","POSTCODE":"77080","ID":"","HASH":"5368538ec4f73bcb"}},{"type":"Feature","geometry":{"type":"Point","coordinates":[-95.5189131,29.8382453]},"properties":{"NUMBER":"9206","STREET":"ROY BEAN DR","UNIT":"","CITY":"","DISTRICT":"","REGION":"","POSTCODE":"77041","ID":"","HASH":"05757c4af9b280b4"}},{"type":"Feature","geometry":{"type":"Point","coordinates":[-95.536678,29.7649673]},"properties":{"NUMBER":"11926","STREET":"WINWOOD LN","UNIT":"","CITY":"","DISTRICT":"","REGION":"","POSTCODE":"77024","ID":"","HASH":"59afedaa81b51ae4"}},{"type":"Feature","geometry":{"type":"Point","coordinates":[-95.5302912,29.749218]},"properties":{"NUMBER":"259","STREET":"SUGARBERRY CIR","UNIT":"","CITY":"","DISTRICT":"","REGION":"","POSTCODE":"77024","ID":"","HASH":"e87d643dafe488f5"}},{"type":"Feature","geometry":{"type":"Point","coordinates":[-95.458371,29.7745921]},"properties":{"NUMBER":"357","STREET":"N  POST OAK LN","UNIT":"","CITY":"","DISTRICT":"","REGION":"","POSTCODE":"77024","ID":"","HASH":"4c71dbfecb8bac10"}},{"type":"Feature","geometry":{"type":"Point","coordinates":[-95.458371,29.7745921]},"properties":{"NUMBER":"361","STREET":"N  POST OAK LN","UNIT":"","CITY":"","DISTRICT":"","REGION":"","POSTCODE":"77024","ID":"","HASH":"1fd01ec9beaced29"}},{"type":"Feature","geometry":{"type":"Point","coordinates":[-95.458371,29.7745921]},"properties":{"NUMBER":"355","STREET":"N  POST OAK LN","UNIT":"","CITY":"","DISTRICT":"","REGION":"","POSTCODE":"77024","ID":"","HASH":"f55a0bdeb88f6767"}},{"type":"Feature","geometry":{"type":"Point","coordinates":[-95.5680037,29.7789478]},"properties":{"NUMBER":"813","STREET":"WAX MYRTLE LN","UNIT":"","CITY":"","DISTRICT":"","REGION":"","POSTCODE":"77079","ID":"","HASH":"e73a9086e783f4aa"}},{"type":"Feature","geometry":{"type":"Point","coordinates":[-95.5212026,29.7670973]},"properties":{"NUMBER":"11510","STREET":"DUNSINANE ST","UNIT":"","CITY":"","DISTRICT":"","REGION":"","POSTCODE":"77024","ID":"","HASH":"4019f4d9e4722e74"}},{"type":"Feature","geometry":{"type":"Point","coordinates":[-95.5645394,29.7741784]},"properties":{"NUMBER":"622","STREET":"DIAMOND LEAF LN","UNIT":"","CITY":"","DISTRICT":"","REGION":"","POSTCODE":"77079","ID":"","HASH":"a4ad7e4cf5d67c21"}},{"type":"Feature","geometry":{"type":"Point","coordinates":[-95.5515102,29.7684783]},"properties":{"NUMBER":"12519","STREET":"MOSSYCUP DR","UNIT":"","CITY":"","DISTRICT":"","REGION":"","POSTCODE":"77024","ID":"","HASH":"8d1ff06f697b35ae"}},{"type":"Feature","geometry":{"type":"Point","coordinates":[-95.5574686,29.7727174]},"properties":{"NUMBER":"12722","STREET":"TAYLORCREST RD","UNIT":"","CITY":"","DISTRICT":"","REGION":"","POSTCODE":"77024","ID":"","HASH":"0db5954649cbf286"}},{"type":"Feature","geometry":{"type":"Point","coordinates":[-95.5455436,29.7679643]},"properties":{"NUMBER":"12314","STREET":"BOHEME DR","UNIT":"","CITY":"","DISTRICT":"","REGION":"","POSTCODE":"77024","ID":"","HASH":"3db050b1ab81dfb1"}},{"type":"Feature","geometry":{"type":"Point","coordinates":[-95.5088983,29.7480917]},"properties":{"NUMBER":"7","STREET":"FARNHAM PARK DR","UNIT":"","CITY":"","DISTRICT":"","REGION":"","POSTCODE":"77024","ID":"","HASH":"e2085bc070a73459"}},{"type":"Feature","geometry":{"type":"Point","coordinates":[-95.5188915,29.8389501]},"properties":{"NUMBER":"9205","STREET":"STAGECOACH DR","UNIT":"","CITY":"","DISTRICT":"","REGION":"","POSTCODE":"77041","ID":"","HASH":"9d84d03a65c7d72f"}},{"type":"Feature","geometry":{"type":"Point","coordinates":[-95.5113321,29.8282966]},"properties":{"NUMBER":"3810","STREET":"MONA LEE LN","UNIT":"","CITY":"","DISTRICT":"","REGION":"","POSTCODE":"77080","ID":"","HASH":"32e307b4198ebb3e"}},{"type":"Feature","geometry":{"type":"Point","coordinates":[-95.580355,29.8564734]},"properties":{"NUMBER":"6120","STREET":"CUNNINGHAM RD","UNIT":"","CITY":"","DISTRICT":"","REGION":"","POSTCODE":"77041","ID":"","HASH":"b5c83988e87a8c45"}},{"type":"Feature","geometry":{"type":"Point","coordinates":[-95.5803628,29.8546452]},"properties":{"NUMBER":"0","STREET":"CUNNINGHAM RD","UNIT":"","CITY":"","DISTRICT":"","REGION":"","POSTCODE":"77041","ID":"","HASH":"03e9c43e02654fee"}},{"type":"Feature","geometry":{"type":"Point","coordinates":[-95.5132999,29.7668775]},"properties":{"NUMBER":"509","STREET":"W  DANA LN","UNIT":"","CITY":"","DISTRICT":"","REGION":"","POSTCODE":"77024","ID":"","HASH":"481f4fab300c3bf9"}},{"type":"Feature","geometry":{"type":"Point","coordinates":[-95.5366679,29.7667889]},"properties":{"NUMBER":"5","STREET":"PATRICK CT","UNIT":"","CITY":"","DISTRICT":"","REGION":"","POSTCODE":"77024","ID":"","HASH":"791ea8c74cef9c5b"}},{"type":"Feature","geometry":{"type":"Point","coordinates":[-95.5588476,29.7704803]},"properties":{"NUMBER":"450","STREET":"FAUST LN","UNIT":"","CITY":"","DISTRICT":"","REGION":"","POSTCODE":"77024","ID":"","HASH":"dd07d5fcbd2d0e8f"}},{"type":"Feature","geometry":{"type":"Point","coordinates":[-95.5468388,29.7586679]},"properties":{"NUMBER":"201","STREET":"VANDERPOOL LN","UNIT":"","CITY":"","DISTRICT":"","REGION":"","POSTCODE":"77024","ID":"","HASH":"e5f8d40c7f198c1c"}},{"type":"Feature","geometry":{"type":"Point","coordinates":[-95.545227,29.7613159]},"properties":{"NUMBER":"239","STREET":"GESSNER RD","UNIT":"","CITY":"","DISTRICT":"","REGION":"","POSTCODE":"77024","ID":"","HASH":"ef40646011fad310"}},{"type":"Feature","geometry":{"type":"Point","coordinates":[-95.5803495,29.8578397]},"properties":{"NUMBER":"6124","STREET":"CUNNINGHAM RD","UNIT":"","CITY":"","DISTRICT":"","REGION":"","POSTCODE":"77041","ID":"","HASH":"e6399b50ea8e0089"}},{"type":"Feature","geometry":{"type":"Point","coordinates":[-95.5139688,29.8303677]},"properties":{"NUMBER":"9006","STREET":"SPRINGVIEW LN","UNIT":"","CITY":"","DISTRICT":"","REGION":"","POSTCODE":"77080","ID":"","HASH":"6d39cbcac2b062c2"}},{"type":"Feature","geometry":{"type":"Point","coordinates":[-95.5173634,29.8304338]},"properties":{"NUMBER":"4016","STREET":"TILSON LN","UNIT":"","CITY":"","DISTRICT":"","REGION":"","POSTCODE":"77080","ID":"","HASH":"4c906c1e0f59d90b"}},{"type":"Feature","geometry":{"type":"Point","coordinates":[-95.5458386,29.7691345]},"properties":{"NUMBER":"12319","STREET":"HUNTINGWICK DR","UNIT":"","CITY":"","DISTRICT":"","REGION":"","POSTCODE":"77024","ID":"","HASH":"7b20df956e07d5ca"}},{"type":"Feature","geometry":{"type":"Point","coordinates":[-95.5464151,29.7696183]},"properties":{"NUMBER":"12326","STREET":"HUNTINGWICK DR","UNIT":"","CITY":"","DISTRICT":"","REGION":"","POSTCODE":"77024","ID":"","HASH":"84e84f8ebcd563f0"}},{"type":"Feature","geometry":{"type":"Point","coordinates":[-95.5047347,29.8241727]},"properties":{"NUMBER":"8639","STREET":"SONNEVILLE DR","UNIT":"","CITY":"","DISTRICT":"","REGION":"","POSTCODE":"77080","ID":"","HASH":"d7649eddfb46873a"}},{"type":"Feature","geometry":{"type":"Point","coordinates":[-95.5429681,29.7607756]},"properties":{"NUMBER":"215","STREET":"WARRENTON DR","UNIT":"","CITY":"","DISTRICT":"","REGION":"","POSTCODE":"77024","ID":"","HASH":"17a7e24882b2c685"}},{"type":"Feature","geometry":{"type":"Point","coordinates":[-95.540639,29.8178202]},"properties":{"NUMBER":"2527","STREET":"ANNISTON DR","UNIT":"","CITY":"","DISTRICT":"","REGION":"","POSTCODE":"77080","ID":"","HASH":"2f2aef25a4ca6a6b"}},{"type":"Feature","geometry":{"type":"Point","coordinates":[-95.5332031,29.8285413]},"properties":{"NUMBER":"9730","STREET":"RAILTON ST","UNIT":"","CITY":"","DISTRICT":"","REGION":"","POSTCODE":"77080","ID":"","HASH":"ac4e4d96ed4666eb"}},{"type":"Feature","geometry":{"type":"Point","coordinates":[-95.5149995,29.8177652]},"properties":{"NUMBER":"2514","STREET":"VALLEYFIELD DR","UNIT":"","CITY":"","DISTRICT":"","REGION":"","POSTCODE":"77080","ID":"","HASH":"e97700bed91b19c8"}},{"type":"Feature","geometry":{"type":"Point","coordinates":[-95.5038149,29.8186964]},"properties":{"NUMBER":"8618","STREET":"NORTON DR","UNIT":"","CITY":"","DISTRICT":"","REGION":"","POSTCODE":"77080","ID":"","HASH":"91af998d392f51ce"}},{"type":"Feature","geometry":{"type":"Point","coordinates":[-95.5043735,29.8189958]},"properties":{"NUMBER":"8631","STREET":"FRIENDSHIP RD","UNIT":"","CITY":"","DISTRICT":"","REGION":"","POSTCODE":"77080","ID":"","HASH":"871784c9b1a62439"}},{"type":"Feature","geometry":{"type":"Point","coordinates":[-95.541594,29.8204184]},"properties":{"NUMBER":"2635","STREET":"TEAGUE RD","UNIT":"","CITY":"","DISTRICT":"","REGION":"","POSTCODE":"77080","ID":"","HASH":"e5b8d01755351187"}},{"type":"Feature","geometry":{"type":"Point","coordinates":[-95.5027309,29.8222521]},"properties":{"NUMBER":"8615","STREET":"BLANKENSHIP DR","UNIT":"","CITY":"","DISTRICT":"","REGION":"","POSTCODE":"77080","ID":"","HASH":"e64d1894234f6f54"}},{"type":"Feature","geometry":{"type":"Point","coordinates":[-95.5009543,29.8180888]},"properties":{"NUMBER":"8507","STREET":"NORTON DR","UNIT":"","CITY":"","DISTRICT":"","REGION":"","POSTCODE":"77080","ID":"","HASH":"d3163dc9bc3ee9aa"}},{"type":"Feature","geometry":{"type":"Point","coordinates":[-95.5184026,29.819022]},"properties":{"NUMBER":"9218","STREET":"NORTON DR","UNIT":"","CITY":"","DISTRICT":"","REGION":"","POSTCODE":"77080","ID":"","HASH":"d722ca342fb3dbd4"}},{"type":"Feature","geometry":{"type":"Point","coordinates":[-95.5287484,29.8152094]},"properties":{"NUMBER":"9527","STREET":"EMNORA LN","UNIT":"","CITY":"","DISTRICT":"","REGION":"","POSTCODE":"77080","ID":"","HASH":"41ff3c8f29b261dc"}},{"type":"Feature","geometry":{"type":"Point","coordinates":[-95.5323852,29.8273505]},"properties":{"NUMBER":"9715","STREET":"KEMP FOREST DR","UNIT":"","CITY":"","DISTRICT":"","REGION":"","POSTCODE":"77080","ID":"","HASH":"95cd5227fd66ed81"}},{"type":"Feature","geometry":{"type":"Point","coordinates":[-95.5293627,29.815696]},"properties":{"NUMBER":"9606","STREET":"EMNORA LN","UNIT":"","CITY":"","DISTRICT":"","REGION":"","POSTCODE":"77080","ID":"","HASH":"4dc3fbedd114dbf5"}},{"type":"Feature","geometry":{"type":"Point","coordinates":[-95.503978,29.817157]},"properties":{"NUMBER":"8622","STREET":"KEMPRIDGE ST","UNIT":"","CITY":"","DISTRICT":"","REGION":"","POSTCODE":"77080","ID":"","HASH":"b6fe2a2403ca09f9"}},{"type":"Feature","geometry":{"type":"Point","coordinates":[-95.5262153,29.7482439]},"properties":{"NUMBER":"9129","STREET":"BRIAR FOREST DR","UNIT":"","CITY":"","DISTRICT":"","REGION":"","POSTCODE":"77024","ID":"","HASH":"5603c4141afe75c8"}},{"type":"Feature","geometry":{"type":"Point","coordinates":[-95.5336035,29.8356026]},"properties":{"NUMBER":"9806","STREET":"ROCKCREST DR","UNIT":"","CITY":"","DISTRICT":"","REGION":"","POSTCODE":"77041","ID":"","HASH":"4c6a58e3a170c287"}},{"type":"Feature","geometry":{"type":"Point","coordinates":[-95.5296187,29.8128656]},"properties":{"NUMBER":"9611","STREET":"BUNDY LN","UNIT":"","CITY":"","DISTRICT":"","REGION":"","POSTCODE":"77080","ID":"","HASH":"c0d709b89323cc1a"}},{"type":"Feature","geometry":{"type":"Point","coordinates":[-95.5307563,29.7483172]},"properties":{"NUMBER":"9203","STREET":"HUDSON CT","UNIT":"","CITY":"","DISTRICT":"","REGION":"","POSTCODE":"77024","ID":"","HASH":"e2726991f16d4fff"}},{"type":"Feature","geometry":{"type":"Point","coordinates":[-95.5269036,29.7477336]},"properties":{"NUMBER":"9149","STREET":"BRIAR FOREST DR","UNIT":"","CITY":"","DISTRICT":"","REGION":"","POSTCODE":"77024","ID":"","HASH":"d22361e042e5c5d8"}},{"type":"Feature","geometry":{"type":"Point","coordinates":[-95.5366867,29.815109]},"properties":{"NUMBER":"9843","STREET":"EMNORA LN","UNIT":"","CITY":"","DISTRICT":"","REGION":"","POSTCODE":"77080","ID":"","HASH":"5cdf45102d7a5df3"}},{"type":"Feature","geometry":{"type":"Point","coordinates":[-95.5406216,29.8180382]},"properties":{"NUMBER":"2531","STREET":"ANNISTON DR","UNIT":"","CITY":"","DISTRICT":"","REGION":"","POSTCODE":"77080","ID":"","HASH":"6aa716c1060aba9d"}},{"type":"Feature","geometry":{"type":"Point","coordinates":[-95.4734527,29.7739929]},"properties":{"NUMBER":"333","STREET":"W  FRIAR TUCK LN","UNIT":"","CITY":"","DISTRICT":"","REGION":"","POSTCODE":"77024","ID":"","HASH":"955562f29b2f1b0b"}},{"type":"Feature","geometry":{"type":"Point","coordinates":[-95.515861,29.8195806]},"properties":{"NUMBER":"9108","STREET":"FRIENDSHIP RD","UNIT":"","CITY":"","DISTRICT":"","REGION":"","POSTCODE":"77080","ID":"","HASH":"a00dc6d4b4f32346"}},{"type":"Feature","geometry":{"type":"Point","coordinates":[-95.5782772,29.8553339]},"properties":{"NUMBER":"6039","STREET":"THOMAS RD","UNIT":"","CITY":"","DISTRICT":"","REGION":"","POSTCODE":"77041","ID":"","HASH":"1ec4fcc82e56e3a7"}},{"type":"Feature","geometry":{"type":"Point","coordinates":[-95.5484668,29.7751092]},"properties":{"NUMBER":"12427","STREET":"WOODTHORPE LN","UNIT":"","CITY":"","DISTRICT":"","REGION":"","POSTCODE":"77024","ID":"","HASH":"84964b0edf33aa3c"}},{"type":"Feature","geometry":{"type":"Point","coordinates":[-95.5415264,29.8190908]},"properties":{"NUMBER":"2611","STREET":"TEAGUE RD","UNIT":"","CITY":"","DISTRICT":"","REGION":"","POSTCODE":"77080","ID":"","HASH":"41ab0205ba1d5314"}},{"type":"Feature","geometry":{"type":"Point","coordinates":[-95.5398339,29.820186]},"properties":{"NUMBER":"2631","STREET":"BANDELIER DR","UNIT":"","CITY":"","DISTRICT":"","REGION":"","POSTCODE":"77080","ID":"","HASH":"cc4abb4021d07659"}},{"type":"Feature","geometry":{"type":"Point","coordinates":[-95.4968775,29.7822327]},"properties":{"NUMBER":"10611","STREET":"TARLETON DR","UNIT":"","CITY":"","DISTRICT":"","REGION":"","POSTCODE":"77024","ID":"","HASH":"5ef58afdd7e9bc80"}},{"type":"Feature","geometry":{"type":"Point","coordinates":[-95.5211498,29.8200617]},"properties":{"NUMBER":"9271","STREET":"FRIENDSHIP RD","UNIT":"","CITY":"","DISTRICT":"","REGION":"","POSTCODE":"77080","ID":"","HASH":"01f32112247dc106"}},{"type":"Feature","geometry":{"type":"Point","coordinates":[-95.5002312,29.8247898]},"properties":{"NUMBER":"8514","STREET":"SONNEVILLE DR","UNIT":"","CITY":"","DISTRICT":"","REGION":"","POSTCODE":"77080","ID":"","HASH":"c9d4bc46de62ec4c"}},{"type":"Feature","geometry":{"type":"Point","coordinates":[-95.5030388,29.8187006]},"properties":{"NUMBER":"8602","STREET":"NORTON DR","UNIT":"","CITY":"","DISTRICT":"","REGION":"","POSTCODE":"77080","ID":"","HASH":"508a30861a30d3da"}},{"type":"Feature","geometry":{"type":"Point","coordinates":[-95.5022513,29.816682]},"properties":{"NUMBER":"8527","STREET":"KEMPRIDGE ST","UNIT":"","CITY":"","DISTRICT":"","REGION":"","POSTCODE":"77080","ID":"","HASH":"04ea8efab4eb5251"}},{"type":"Feature","geometry":{"type":"Point","coordinates":[-95.5216755,29.8176324]},"properties":{"NUMBER":"9402","STREET":"ALCOTT DR","UNIT":"","CITY":"","DISTRICT":"","REGION":"","POSTCODE":"77080","ID":"","HASH":"4aa47194754305b7"}},{"type":"Feature","geometry":{"type":"Point","coordinates":[-95.5499637,29.8428979]},"properties":{"NUMBER":"5111","STREET":"E  FALLEN BOUGH DR","UNIT":"","CITY":"","DISTRICT":"","REGION":"","POSTCODE":"77041","ID":"","HASH":"ca80d5e3457c57e5"}},{"type":"Feature","geometry":{"type":"Point","coordinates":[-95.5344959,29.81923]},"properties":{"NUMBER":"2615","STREET":"PALO PINTO DR","UNIT":"","CITY":"","DISTRICT":"","REGION":"","POSTCODE":"77080","ID":"","HASH":"505a7c459fc2d3c7"}},{"type":"Feature","geometry":{"type":"Point","coordinates":[-95.5217733,29.8169733]},"properties":{"NUMBER":"2419","STREET":"LAZY SPRING DR","UNIT":"","CITY":"","DISTRICT":"","REGION":"","POSTCODE":"77080","ID":"","HASH":"9f39536808ee2b76"}},{"type":"Feature","geometry":{"type":"Point","coordinates":[-95.5005178,29.8234735]},"properties":{"NUMBER":"3126","STREET":"FARMINGTON ST","UNIT":"","CITY":"","DISTRICT":"","REGION":"","POSTCODE":"77080","ID":"","HASH":"d621ad3da5b33f09"}},{"type":"Feature","geometry":{"type":"Point","coordinates":[-95.531927,29.7674973]},"properties":{"NUMBER":"15","STREET":"WILLIAMSBURG LN","UNIT":"","CITY":"","DISTRICT":"","REGION":"","POSTCODE":"77024","ID":"","HASH":"cfb3d3e4ab9e77ca"}},{"type":"Feature","geometry":{"type":"Point","coordinates":[-95.5530158,29.834053]},"properties":{"NUMBER":"4418","STREET":"DURBAN DR","UNIT":"","CITY":"","DISTRICT":"","REGION":"","POSTCODE":"77041","ID":"","HASH":"eb468681250301cc"}},{"type":"Feature","geometry":{"type":"Point","coordinates":[-95.5782741,29.8562519]},"properties":{"NUMBER":"6039","STREET":"THOMAS RD","UNIT":"","CITY":"","DISTRICT":"","REGION":"","POSTCODE":"77041","ID":"","HASH":"35e6c0c9941e0acc"}},{"type":"Feature","geometry":{"type":"Point","coordinates":[-95.4716608,29.7739633]},"properties":{"NUMBER":"325","STREET":"W  FRIAR TUCK LN","UNIT":"","CITY":"","DISTRICT":"","REGION":"","POSTCODE":"77024","ID":"","HASH":"193b6d84e43aeb80"}},{"type":"Feature","geometry":{"type":"Point","coordinates":[-95.4695382,29.7723109]},"properties":{"NUMBER":"4","STREET":"WINSTON WOODS DR","UNIT":"","CITY":"","DISTRICT":"","REGION":"","POSTCODE":"77024","ID":"","HASH":"452174a2af92ec66"}},{"type":"Feature","geometry":{"type":"Point","coordinates":[-95.5356583,29.7929994]},"properties":{"NUMBER":"9806","STREET":"OAK POINT DR","UNIT":"","CITY":"","DISTRICT":"","REGION":"","POSTCODE":"77055","ID":"","HASH":"e3718769b47ddd14"}},{"type":"Feature","geometry":{"type":"Point","coordinates":[-95.5345414,29.8350318]},"properties":{"NUMBER":"9825","STREET":"ROCKCREST DR","UNIT":"","CITY":"","DISTRICT":"","REGION":"","POSTCODE":"77041","ID":"","HASH":"fb82502133ea4526"}},{"type":"Feature","geometry":{"type":"Point","coordinates":[-95.5335497,29.7936869]},"properties":{"NUMBER":"9765","STREET":"TAPPENBECK DR","UNIT":"","CITY":"","DISTRICT":"","REGION":"","POSTCODE":"77055","ID":"","HASH":"e8eac4c824513f13"}},{"type":"Feature","geometry":{"type":"Point","coordinates":[-95.5224332,29.7924494]},"properties":{"NUMBER":"1279","STREET":"BLALOCK RD","UNIT":"","CITY":"","DISTRICT":"","REGION":"","POSTCODE":"77055","ID":"","HASH":"ee0c1eb168d24852"}},{"type":"Feature","geometry":{"type":"Point","coordinates":[-95.5278556,29.7922687]},"properties":{"NUMBER":"9638","STREET":"CEDARDALE DR","UNIT":"","CITY":"","DISTRICT":"","REGION":"","POSTCODE":"77055","ID":"","HASH":"5e913e03026f812d"}},{"type":"Feature","geometry":{"type":"Point","coordinates":[-95.5047381,29.8179212]},"properties":{"NUMBER":"8638","STREET":"ALCOTT DR","UNIT":"","CITY":"","DISTRICT":"","REGION":"","POSTCODE":"77080","ID":"","HASH":"a947cc89e4e0f314"}},{"type":"Feature","geometry":{"type":"Point","coordinates":[-95.5190779,29.8195525]},"properties":{"NUMBER":"9231","STREET":"FRIENDSHIP RD","UNIT":"","CITY":"","DISTRICT":"","REGION":"","POSTCODE":"77080","ID":"","HASH":"4002f3505e6d3661"}},{"type":"Feature","geometry":{"type":"Point","coordinates":[-95.5401778,29.7673807]},"properties":{"NUMBER":"12103","STREET":"BOHEME DR","UNIT":"","CITY":"","DISTRICT":"","REGION":"","POSTCODE":"77024","ID":"","HASH":"1d9f3265806113cc"}},{"type":"Feature","geometry":{"type":"Point","coordinates":[-95.5371908,29.7607836]},"properties":{"NUMBER":"11910","STREET":"CLARENDON LN","UNIT":"","CITY":"","DISTRICT":"","REGION":"","POSTCODE":"77024","ID":"","HASH":"59260aa07808cf2a"}},{"type":"Feature","geometry":{"type":"Point","coordinates":[-95.5196477,29.7913057]},"properties":{"NUMBER":"9253","STREET":"LARSTON ST","UNIT":"","CITY":"","DISTRICT":"","REGION":"","POSTCODE":"77055","ID":"","HASH":"7cdc730350e98c95"}},{"type":"Feature","geometry":{"type":"Point","coordinates":[-95.5287552,29.7946763]},"properties":{"NUMBER":"1450","STREET":"SPRINGROCK LN","UNIT":"","CITY":"","DISTRICT":"","REGION":"","POSTCODE":"77055","ID":"","HASH":"58aa564e374d99d6"}},{"type":"Feature","geometry":{"type":"Point","coordinates":[-95.5271638,29.7935794]},"properties":{"NUMBER":"9625","STREET":"PANOLA WAY","UNIT":"","CITY":"","DISTRICT":"","REGION":"","POSTCODE":"77055","ID":"","HASH":"67883b9a42519886"}},{"type":"Feature","geometry":{"type":"Point","coordinates":[-95.526032,29.7947954]},"properties":{"NUMBER":"1417","STREET":"OAK TREE DR","UNIT":"","CITY":"","DISTRICT":"","REGION":"","POSTCODE":"77055","ID":"","HASH":"6a95db77d17419b6"}},{"type":"Feature","geometry":{"type":"Point","coordinates":[-95.5262009,29.7905016]},"properties":{"NUMBER":"9606","STREET":"PINE LAKE DR","UNIT":"","CITY":"","DISTRICT":"","REGION":"","POSTCODE":"77055","ID":"","HASH":"c159a105c6a8b4cd"}},{"type":"Feature","geometry":{"type":"Point","coordinates":[-95.5299484,29.7908174]},"properties":{"NUMBER":"9713","STREET":"LARSTON ST","UNIT":"","CITY":"","DISTRICT":"","REGION":"","POSTCODE":"77055","ID":"","HASH":"005ce6827de0303c"}},{"type":"Feature","geometry":{"type":"Point","coordinates":[-95.5268094,29.793206]},"properties":{"NUMBER":"9618","STREET":"WESTVIEW DR","UNIT":"","CITY":"","DISTRICT":"","REGION":"","POSTCODE":"77055","ID":"","HASH":"c2f553b694eb34f9"}},{"type":"Feature","geometry":{"type":"Point","coordinates":[-95.52763,29.7896378]},"properties":{"NUMBER":"9634","STREET":"LONG BRANCH LN","UNIT":"","CITY":"","DISTRICT":"","REGION":"","POSTCODE":"77055","ID":"","HASH":"29eaeb4352a9e182"}},{"type":"Feature","geometry":{"type":"Point","coordinates":[-95.5272474,29.7951114]},"properties":{"NUMBER":"9626","STREET":"MARIBELLE WAY","UNIT":"","CITY":"","DISTRICT":"","REGION":"","POSTCODE":"77055","ID":"","HASH":"be61272b4c2a6ce9"}},{"type":"Feature","geometry":{"type":"Point","coordinates":[-95.5276347,29.7922679]},"properties":{"NUMBER":"9634","STREET":"CEDARDALE DR","UNIT":"","CITY":"","DISTRICT":"","REGION":"","POSTCODE":"77055","ID":"","HASH":"f79e53208adf4121"}},{"type":"Feature","geometry":{"type":"Point","coordinates":[-95.5263966,29.7941449]},"properties":{"NUMBER":"9610","STREET":"PANOLA WAY","UNIT":"","CITY":"","DISTRICT":"","REGION":"","POSTCODE":"77055","ID":"","HASH":"55c4d0a9b9f2f744"}},{"type":"Feature","geometry":{"type":"Point","coordinates":[-95.5358217,29.7930128]},"properties":{"NUMBER":"9810","STREET":"OAK POINT DR","UNIT":"","CITY":"","DISTRICT":"","REGION":"","POSTCODE":"77055","ID":"","HASH":"ad222301dafb67ff"}},{"type":"Feature","geometry":{"type":"Point","coordinates":[-95.5283717,29.7895392]},"properties":{"NUMBER":"1121","STREET":"CONFEDERATE RD","UNIT":"","CITY":"","DISTRICT":"","REGION":"","POSTCODE":"77055","ID":"","HASH":"23499429075c3823"}},{"type":"Feature","geometry":{"type":"Point","coordinates":[-95.526404,29.7922704]},"properties":{"NUMBER":"9610","STREET":"CEDARDALE DR","UNIT":"","CITY":"","DISTRICT":"","REGION":"","POSTCODE":"77055","ID":"","HASH":"c34ec310a5f30ec9"}},{"type":"Feature","geometry":{"type":"Point","coordinates":[-95.5283662,29.7907797]},"properties":{"NUMBER":"1213","STREET":"CONFEDERATE RD","UNIT":"","CITY":"","DISTRICT":"","REGION":"","POSTCODE":"77055","ID":"","HASH":"4528c7fa630d8a22"}},{"type":"Feature","geometry":{"type":"Point","coordinates":[-95.5283651,29.7902534]},"properties":{"NUMBER":"1201","STREET":"CONFEDERATE RD","UNIT":"","CITY":"","DISTRICT":"","REGION":"","POSTCODE":"77055","ID":"","HASH":"27ee657699128a38"}},{"type":"Feature","geometry":{"type":"Point","coordinates":[-95.5272251,29.7913862]},"properties":{"NUMBER":"9626","STREET":"LARSTON ST","UNIT":"","CITY":"","DISTRICT":"","REGION":"","POSTCODE":"77055","ID":"","HASH":"6b598000d583cc2c"}},{"type":"Feature","geometry":{"type":"Point","coordinates":[-95.4721838,29.774563]},"properties":{"NUMBER":"335","STREET":"W  FRIAR TUCK LN","UNIT":"","CITY":"","DISTRICT":"","REGION":"","POSTCODE":"77024","ID":"","HASH":"ae3215c8a7931ea4"}},{"type":"Feature","geometry":{"type":"Point","coordinates":[-95.5270195,29.7905042]},"properties":{"NUMBER":"9622","STREET":"PINE LAKE DR","UNIT":"","CITY":"","DISTRICT":"","REGION":"","POSTCODE":"77055","ID":"","HASH":"da4ddbfbedd798a1"}},{"type":"Feature","geometry":{"type":"Point","coordinates":[-95.5360836,29.7930175]},"properties":{"NUMBER":"9818","STREET":"OAK POINT DR","UNIT":"","CITY":"","DISTRICT":"","REGION":"","POSTCODE":"77055","ID":"","HASH":"83773548a080baf0"}},{"type":"Feature","geometry":{"type":"Point","coordinates":[-95.5259741,29.7926306]},"properties":{"NUMBER":"9601","STREET":"WESTVIEW DR","UNIT":"","CITY":"","DISTRICT":"","REGION":"","POSTCODE":"77055","ID":"","HASH":"083e6ae0b9589e37"}},{"type":"Feature","geometry":{"type":"Point","coordinates":[-95.517102,29.7966273]},"properties":{"NUMBER":"9143","STREET":"OLATHE ST","UNIT":"","CITY":"","DISTRICT":"","REGION":"","POSTCODE":"77055","ID":"","HASH":"5ffb7cfd688c4257"}},{"type":"Feature","geometry":{"type":"Point","coordinates":[-95.5046745,29.7948026]},"properties":{"NUMBER":"1413","STREET":"BRACHER ST","UNIT":"","CITY":"","DISTRICT":"","REGION":"","POSTCODE":"77055","ID":"","HASH":"9a8b0a34cc636b0e"}},{"type":"Feature","geometry":{"type":"Point","coordinates":[-95.5283561,29.7947955]},"properties":{"NUMBER":"1417","STREET":"CONFEDERATE RD","UNIT":"","CITY":"","DISTRICT":"","REGION":"","POSTCODE":"77055","ID":"","HASH":"e736244827915f05"}},{"type":"Feature","geometry":{"type":"Point","coordinates":[-95.4907801,29.796736]},"properties":{"NUMBER":"1422","STREET":"HUGE OAKS ST","UNIT":"","CITY":"","DISTRICT":"","REGION":"","POSTCODE":"77055","ID":"","HASH":"f90e6da144e33495"}},{"type":"Feature","geometry":{"type":"Point","coordinates":[-95.5186177,29.7974738]},"properties":{"NUMBER":"9235","STREET":"PECOS ST","UNIT":"","CITY":"","DISTRICT":"","REGION":"","POSTCODE":"77055","ID":"","HASH":"3004c2a7e52294e2"}},{"type":"Feature","geometry":{"type":"Point","coordinates":[-95.5304565,29.7889836]},"properties":{"NUMBER":"9733","STREET":"LONG BRANCH LN","UNIT":"","CITY":"","DISTRICT":"","REGION":"","POSTCODE":"77055","ID":"","HASH":"3e09b70edcd88110"}},{"type":"Feature","geometry":{"type":"Point","coordinates":[-95.5055047,29.7991793]},"properties":{"NUMBER":"8745","STREET":"CANDACE ST","UNIT":"","CITY":"","DISTRICT":"","REGION":"","POSTCODE":"77055","ID":"","HASH":"2cb6cfd1536c0786"}},{"type":"Feature","geometry":{"type":"Point","coordinates":[-95.4940006,29.7917154]},"properties":{"NUMBER":"8313","STREET":"MERLIN DR","UNIT":"","CITY":"","DISTRICT":"","REGION":"","POSTCODE":"77055","ID":"","HASH":"c7a52e190abfad37"}},{"type":"Feature","geometry":{"type":"Point","coordinates":[-95.4939945,29.7913392]},"properties":{"NUMBER":"8316","STREET":"CEDARBRAKE DR","UNIT":"","CITY":"","DISTRICT":"","REGION":"","POSTCODE":"77055","ID":"","HASH":"507b6708ca7da943"}},{"type":"Feature","geometry":{"type":"Point","coordinates":[-95.529398,29.7898945]},"properties":{"NUMBER":"9705","STREET":"PINE LAKE DR","UNIT":"","CITY":"","DISTRICT":"","REGION":"","POSTCODE":"77055","ID":"","HASH":"1fbb712098628cd1"}},{"type":"Feature","geometry":{"type":"Point","coordinates":[-95.503452,29.7853161]},"properties":{"NUMBER":"8716","STREET":"BUNNINGHAM LN","UNIT":"","CITY":"","DISTRICT":"","REGION":"","POSTCODE":"77055","ID":"","HASH":"b3223bd250f3df22"}},{"type":"Feature","geometry":{"type":"Point","coordinates":[-95.5099016,29.7903713]},"properties":{"NUMBER":"8937","STREET":"CROES DR","UNIT":"","CITY":"","DISTRICT":"","REGION":"","POSTCODE":"77055","ID":"","HASH":"92e4ead0fd202f9f"}},{"type":"Feature","geometry":{"type":"Point","coordinates":[-95.5183148,29.7971279]},"properties":{"NUMBER":"9214","STREET":"OLATHE ST","UNIT":"","CITY":"","DISTRICT":"","REGION":"","POSTCODE":"77055","ID":"","HASH":"03f5c25a440bdeb3"}},{"type":"Feature","geometry":{"type":"Point","coordinates":[-95.5298451,29.7898962]},"properties":{"NUMBER":"9713","STREET":"PINE LAKE DR","UNIT":"","CITY":"","DISTRICT":"","REGION":"","POSTCODE":"77055","ID":"","HASH":"b0a7e51fe36c82bb"}},{"type":"Feature","geometry":{"type":"Point","coordinates":[-95.5200227,29.7913015]},"properties":{"NUMBER":"9257","STREET":"LARSTON ST","UNIT":"","CITY":"","DISTRICT":"","REGION":"","POSTCODE":"77055","ID":"","HASH":"b51b773fb7a20145"}},{"type":"Feature","geometry":{"type":"Point","coordinates":[-95.5274343,29.7950786]},"properties":{"NUMBER":"9630","STREET":"MARIBELLE WAY","UNIT":"","CITY":"","DISTRICT":"","REGION":"","POSTCODE":"77055","ID":"","HASH":"4d2b1bacf36b15f1"}},{"type":"Feature","geometry":{"type":"Point","coordinates":[-95.5305604,29.7917489]},"properties":{"NUMBER":"9725","STREET":"CEDARDALE DR","UNIT":"","CITY":"","DISTRICT":"","REGION":"","POSTCODE":"77055","ID":"","HASH":"bd132420195708ee"}},{"type":"Feature","geometry":{"type":"Point","coordinates":[-95.5803665,29.7505904]},"properties":{"NUMBER":"1618","STREET":"PARK HAVEN DR","UNIT":"","CITY":"","DISTRICT":"","REGION":"","POSTCODE":"77077","ID":"","HASH":"1aa17a64b3f70218"}},{"type":"Feature","geometry":{"type":"Point","coordinates":[-95.5266036,29.7932051]},"properties":{"NUMBER":"9614","STREET":"WESTVIEW DR","UNIT":"","CITY":"","DISTRICT":"","REGION":"","POSTCODE":"77055","ID":"","HASH":"ab50d8b61ecd8f46"}},{"type":"Feature","geometry":{"type":"Point","coordinates":[-95.5283602,29.7934828]},"properties":{"NUMBER":"1329","STREET":"CONFEDERATE RD","UNIT":"","CITY":"","DISTRICT":"","REGION":"","POSTCODE":"77055","ID":"","HASH":"73814e5d9a2e2aed"}},{"type":"Feature","geometry":{"type":"Point","coordinates":[-95.5117382,29.789126]},"properties":{"NUMBER":"18","STREET":"VILLAGE OAKS LN","UNIT":"","CITY":"","DISTRICT":"","REGION":"","POSTCODE":"77055","ID":"","HASH":"dd22391611337135"}},{"type":"Feature","geometry":{"type":"Point","coordinates":[-95.531483,29.7932305]},"properties":{"NUMBER":"9738","STREET":"WESTVIEW DR","UNIT":"","CITY":"","DISTRICT":"","REGION":"","POSTCODE":"77055","ID":"","HASH":"6088ccb770bee404"}},{"type":"Feature","geometry":{"type":"Point","coordinates":[-95.5143523,29.7915375]},"properties":{"NUMBER":"1241","STREET":"CAMPBELL RD","UNIT":"","CITY":"","DISTRICT":"","REGION":"","POSTCODE":"77055","ID":"","HASH":"9e53ae09ffadc610"}},{"type":"Feature","geometry":{"type":"Point","coordinates":[-95.5304487,29.8133194]},"properties":{"NUMBER":"9626","STREET":"BUNDY LN","UNIT":"","CITY":"","DISTRICT":"","REGION":"","POSTCODE":"77080","ID":"","HASH":"c20d74880b8f02a1"}},{"type":"Feature","geometry":{"type":"Point","coordinates":[-95.4625401,29.7787559]},"properties":{"NUMBER":"704","STREET":"HOLY ROOD LN","UNIT":"","CITY":"","DISTRICT":"","REGION":"","POSTCODE":"77024","ID":"","HASH":"5bbce6f16b0c1a8b"}},{"type":"Feature","geometry":{"type":"Point","coordinates":[-95.4924918,29.7964922]},"properties":{"NUMBER":"1423","STREET":"LYNNVIEW DR","UNIT":"","CITY":"","DISTRICT":"","REGION":"","POSTCODE":"77055","ID":"","HASH":"b300646603de7b27"}},{"type":"Feature","geometry":{"type":"Point","coordinates":[-95.5782652,29.8580668]},"properties":{"NUMBER":"6131","STREET":"THOMAS RD","UNIT":"","CITY":"","DISTRICT":"","REGION":"","POSTCODE":"77041","ID":"","HASH":"6c093e3b91735757"}},{"type":"Feature","geometry":{"type":"Point","coordinates":[-95.5782781,29.854702]},"properties":{"NUMBER":"5921","STREET":"THOMAS RD","UNIT":"","CITY":"","DISTRICT":"","REGION":"","POSTCODE":"77041","ID":"","HASH":"b2a54c0222d1cbe3"}},{"type":"Feature","geometry":{"type":"Point","coordinates":[-95.5119241,29.7870329]},"properties":{"NUMBER":"1107","STREET":"LOESER DR","UNIT":"","CITY":"","DISTRICT":"","REGION":"","POSTCODE":"77055","ID":"","HASH":"dce905db4e3ee539"}},{"type":"Feature","geometry":{"type":"Point","coordinates":[-95.5091905,29.7893438]},"properties":{"NUMBER":"8913","STREET":"CROES DR","UNIT":"","CITY":"","DISTRICT":"","REGION":"","POSTCODE":"77055","ID":"","HASH":"829da47292e5a0b3"}},{"type":"Feature","geometry":{"type":"Point","coordinates":[-95.5284887,29.8144559]},"properties":{"NUMBER":"9551","STREET":"WEATHERWOOD DR","UNIT":"","CITY":"","DISTRICT":"","REGION":"","POSTCODE":"77080","ID":"","HASH":"1e2f6cd3cd0d4b91"}},{"type":"Feature","geometry":{"type":"Point","coordinates":[-95.4704634,29.7812002]},"properties":{"NUMBER":"817","STREET":"E  FRIAR TUCK LN","UNIT":"","CITY":"","DISTRICT":"","REGION":"","POSTCODE":"77024","ID":"","HASH":"7128d4f89c64e7f0"}},{"type":"Feature","geometry":{"type":"Point","coordinates":[-95.4882958,29.7966372]},"properties":{"NUMBER":"1429","STREET":"GLOURIE DR","UNIT":"","CITY":"","DISTRICT":"","REGION":"","POSTCODE":"77055","ID":"","HASH":"bb696c6610ac14e2"}},{"type":"Feature","geometry":{"type":"Point","coordinates":[-95.4722369,29.7734598]},"properties":{"NUMBER":"7","STREET":"LONGBOW LN","UNIT":"","CITY":"","DISTRICT":"","REGION":"","POSTCODE":"77024","ID":"","HASH":"036e8097f9641376"}},{"type":"Feature","geometry":{"type":"Point","coordinates":[-95.5803514,29.857158]},"properties":{"NUMBER":"6122","STREET":"CUNNINGHAM RD","UNIT":"","CITY":"","DISTRICT":"","REGION":"","POSTCODE":"77041","ID":"","HASH":"c592bd5d10ad46a0"}},{"type":"Feature","geometry":{"type":"Point","coordinates":[-95.4710937,29.7734998]},"properties":{"NUMBER":"315","STREET":"W  FRIAR TUCK LN","UNIT":"","CITY":"","DISTRICT":"","REGION":"","POSTCODE":"77024","ID":"","HASH":"bbba30c4c22553bb"}},{"type":"Feature","geometry":{"type":"Point","coordinates":[-95.5542686,29.7741414]},"properties":{"NUMBER":"611","STREET":"ATTINGHAM DR","UNIT":"","CITY":"","DISTRICT":"","REGION":"","POSTCODE":"77024","ID":"","HASH":"8fc84c584b21f27e"}},{"type":"Feature","geometry":{"type":"Point","coordinates":[-95.521332,29.773018]},"properties":{"NUMBER":"11514","STREET":"SUMMERHILL LN","UNIT":"","CITY":"","DISTRICT":"","REGION":"","POSTCODE":"77024","ID":"","HASH":"4c2da7c97cabda55"}},{"type":"Feature","geometry":{"type":"Point","coordinates":[-95.5291312,29.7948415]},"properties":{"NUMBER":"1460","STREET":"SPRINGROCK LN","UNIT":"","CITY":"","DISTRICT":"","REGION":"","POSTCODE":"77055","ID":"","HASH":"6ecda968211c7288"}},{"type":"Feature","geometry":{"type":"Point","coordinates":[-95.5029123,29.7941729]},"properties":{"NUMBER":"8708","STREET":"WESTVIEW DR","UNIT":"","CITY":"","DISTRICT":"","REGION":"","POSTCODE":"77055","ID":"","HASH":"2d8a0b301a4b61bb"}},{"type":"Feature","geometry":{"type":"Point","coordinates":[-95.5112687,29.7903007]},"properties":{"NUMBER":"9008","STREET":"RANDY DR","UNIT":"","CITY":"","DISTRICT":"","REGION":"","POSTCODE":"77055","ID":"","HASH":"f229c3f15961aecb"}},{"type":"Feature","geometry":{"type":"Point","coordinates":[-95.5325488,29.7922342]},"properties":{"NUMBER":"9761","STREET":"WESTVIEW DR","UNIT":"","CITY":"","DISTRICT":"","REGION":"","POSTCODE":"77055","ID":"","HASH":"f736ed1ce25bcd51"}},{"type":"Feature","geometry":{"type":"Point","coordinates":[-95.5488786,29.7705177]},"properties":{"NUMBER":"12422","STREET":"OLD OAKS DR","UNIT":"","CITY":"","DISTRICT":"","REGION":"","POSTCODE":"77024","ID":"","HASH":"55a7ba6bbd4aee82"}}]}
